[{"OBJECT_NAME":"LOBACHEVSKY (RS83S)","OBJECT_ID":"2025-313AN","EPOCH":"2026-03-09T21:53:46.312512","MEAN_MOTION":15.21792932,"ECCENTRICITY":0.0010507,"INCLINATION":97.399,"RA_OF_ASC_NODE":145.2052,"ARG_OF_PERICENTER":356.6168,"MEAN_ANOMALY":3.4996,"EPHEMERIS_TYPE":0,"CLASSIFICATION_TYPE":"U","NORAD_CAT_ID":67284,"ELEMENT_SET_NO":999,"REV_AT_EPOCH":1085,"BSTAR":0.00030825721,"MEAN_MOTION_DOT":6.937e-5,"MEAN_MOTION_DDOT":0},{"OBJECT_NAME":"COSMOS 2251 DEB","OBJECT_ID":"1993-036BPR","EPOCH":"2026-02-24T07:57:21.236256","MEAN_MOTION":15.23776337,"ECCENTRICITY":0.00166824,"INCLINATION":73.9787,"RA_OF_ASC_NODE":76.2838,"ARG_OF_PERICENTER":284.1156,"MEAN_ANOMALY":75.8189,"EPHEMERIS_TYPE":0,"CLASSIFICATION_TYPE":"U","NORAD_CAT_ID":37966,"ELEMENT_SET_NO":999,"REV_AT_EPOCH":86459,"BSTAR":0.0031189174,"MEAN_MOTION_DOT":0.00076101,"MEAN_MOTION_DDOT":0}]
